CCSDS_OMM_VERS = 2.0
CREATION_DATE  = 
ORIGINATOR     = 

OBJECT_NAME    = XRISM
OBJECT_ID      = 2023-137A
CENTER_NAME    = EARTH
REF_FRAME      = TEME
TIME_SYSTEM    = UTC
MEAN_ELEMENT_THEORY = SGP/SGP4

EPOCH          = 2026-04-04T11:00:19.017216
MEAN_MOTION    = 15.11821251
ECCENTRICITY   = .00078373
INCLINATION    = 31.0012
RA_OF_ASC_NODE = 116.9489
ARG_OF_PERICENTER = 297.7680
MEAN_ANOMALY   = 62.2163

EPHEMERIS_TYPE = 0
CLASSIFICATION_TYPE = U
NORAD_CAT_ID   = 57800
ELEMENT_SET_NO = 999
REV_AT_EPOCH   = 14169
BSTAR          = .47447988E-3
MEAN_MOTION_DOT = .8415E-4
MEAN_MOTION_DDOT = 0

CCSDS_OMM_VERS = 2.0
CREATION_DATE  = 
ORIGINATOR     = 

OBJECT_NAME    = ACS3
OBJECT_ID      = 2024-077B
CENTER_NAME    = EARTH
REF_FRAME      = TEME
TIME_SYSTEM    = UTC
MEAN_ELEMENT_THEORY = SGP/SGP4

EPOCH          = 2026-04-04T18:25:45.311520
MEAN_MOTION    = 13.90931246
ECCENTRICITY   = .00733591
INCLINATION    = 97.1949
RA_OF_ASC_NODE = 30.0195
ARG_OF_PERICENTER = 18.0260
MEAN_ANOMALY   = 342.3481

EPHEMERIS_TYPE = 0
CLASSIFICATION_TYPE = U
NORAD_CAT_ID   = 59588
ELEMENT_SET_NO = 999
REV_AT_EPOCH   = 9782
BSTAR          = .31621755E-1
MEAN_MOTION_DOT = .40672E-3
MEAN_MOTION_DDOT = 0

CCSDS_OMM_VERS = 2.0
CREATION_DATE  = 
ORIGINATOR     = 

OBJECT_NAME    = HTV-X1
OBJECT_ID      = 2025-241A
CENTER_NAME    = EARTH
REF_FRAME      = TEME
TIME_SYSTEM    = UTC
MEAN_ELEMENT_THEORY = SGP/SGP4

EPOCH          = 2026-04-04T22:19:58.989504
MEAN_MOTION    = 15.32540241
ECCENTRICITY   = .00073425
INCLINATION    = 51.6361
RA_OF_ASC_NODE = 306.5734
ARG_OF_PERICENTER = 273.9115
MEAN_ANOMALY   = 86.1027

EPHEMERIS_TYPE = 0
CLASSIFICATION_TYPE = U
NORAD_CAT_ID   = 66174
ELEMENT_SET_NO = 999
REV_AT_EPOCH   = 2496
BSTAR          = .24349719E-3
MEAN_MOTION_DOT = .7406E-4
MEAN_MOTION_DDOT = 0

CCSDS_OMM_VERS = 2.0
CREATION_DATE  = 
ORIGINATOR     = 

OBJECT_NAME    = SZ-21 MODULE
OBJECT_ID      = 2025-246C
CENTER_NAME    = EARTH
REF_FRAME      = TEME
TIME_SYSTEM    = UTC
MEAN_ELEMENT_THEORY = SGP/SGP4

EPOCH          = 2026-04-04T06:29:10.005216
MEAN_MOTION    = 15.70682632
ECCENTRICITY   = .00032252
INCLINATION    = 41.4750
RA_OF_ASC_NODE = 45.6530
ARG_OF_PERICENTER = 227.1909
MEAN_ANOMALY   = 132.8663

EPHEMERIS_TYPE = 0
CLASSIFICATION_TYPE = U
NORAD_CAT_ID   = 66515
ELEMENT_SET_NO = 999
REV_AT_EPOCH   = 2209
BSTAR          = .47836762E-3
MEAN_MOTION_DOT = .61134E-3
MEAN_MOTION_DDOT = 0

