XRISM                   
1 57800U 23137A   26094.45855344  .00008415  00000+0  47448-3 0  9992
2 57800  31.0012 116.9489 0007837 297.7680  62.2163 15.11821251141699
ACS3                    
1 59588U 24077B   26094.76788555  .00040672  00000+0  31622-1 0  9990
2 59588  97.1949  30.0195 0073359  18.0260 342.3481 13.90931246 97827
HTV-X1                  
1 66174U 25241A   26094.93054386  .00007406  00000+0  24350-3 0  9990
2 66174  51.6361 306.5734 0007342 273.9115  86.1027 15.32540241 24962
SZ-21 MODULE            
1 66515U 25246C   26094.27025469  .00061134  00000+0  47837-3 0  9994
2 66515  41.4750  45.6530 0003225 227.1909 132.8663 15.70682632 22093
